{
    "links": {
        "self": "http://www.neowsapp.com/rest/v1/neo/3313732?api_key=iIulBulltgU6a56xZRHN4H3l9WmuAYTsLGpBGhQ2"
    },
    "id": "3313732",
    "neo_reference_id": "3313732",
    "name": "(2006 BA8)",
    "designation": "2006 BA8",
    "nasa_jpl_url": "http://ssd.jpl.nasa.gov/sbdb.cgi?sstr=3313732",
    "absolute_magnitude_h": 24.1,
    "estimated_diameter": {
        "kilometers": {
            "estimated_diameter_min": 0.040230458,
            "estimated_diameter_max": 0.0899580388
        },
        "meters": {
            "estimated_diameter_min": 40.2304579834,
            "estimated_diameter_max": 89.9580388169
        },
        "miles": {
            "estimated_diameter_min": 0.0249980399,
            "estimated_diameter_max": 0.0558973165
        },
        "feet": {
            "estimated_diameter_min": 131.9896957704,
            "estimated_diameter_max": 295.1379320721
        }
    },
    "is_potentially_hazardous_asteroid": false,
    "close_approach_data": [
        {
            "close_approach_date": "2006-01-25",
            "close_approach_date_full": "2006-Jan-25 06:41",
            "epoch_date_close_approach": 1138171260000,
            "relative_velocity": {
                "kilometers_per_second": "5.5006712417",
                "kilometers_per_hour": "19802.4164699811",
                "miles_per_hour": "12304.4515004725"
            },
            "miss_distance": {
                "astronomical": "0.1794613701",
                "lunar": "69.8104729689",
                "kilometers": "26847038.714241687",
                "miles": "16681976.3035098006"
            },
            "orbiting_body": "Earth"
        }
    ],
    "orbital_data": {
        "orbit_id": "11",
        "orbit_determination_date": "2017-04-06 09:09:19",
        "first_observation_date": "2006-01-23",
        "last_observation_date": "2006-02-04",
        "data_arc_in_days": 12,
        "observations_used": 27,
        "orbit_uncertainty": "8",
        "minimum_orbit_intersection": ".175839",
        "jupiter_tisserand_invariant": "3.921",
        "epoch_osculation": "2453762.5",
        "eccentricity": ".3688177361276992",
        "semi_major_axis": "1.837968577266443",
        "inclination": "9.295453248477868",
        "ascending_node_longitude": "305.0299375642019",
        "orbital_period": "910.1344433000646",
        "perihelion_distance": "1.160093167525185",
        "perihelion_argument": "177.3089853622697",
        "aphelion_distance": "2.5158439870077",
        "perihelion_time": "2453755.940318571502",
        "mean_anomaly": "2.594655472763726",
        "mean_motion": ".3955459576880453",
        "equinox": "J2000",
        "orbit_class": {
            "orbit_class_type": "AMO",
            "orbit_class_description": "Near-Earth asteroid orbits similar to that of 1221 Amor",
            "orbit_class_range": "1.017 AU < q (perihelion) < 1.3 AU"
        }
    },
    "is_sentry_object": false
}